[{"OBJECT_NAME":"STARLINK-32698","OBJECT_ID":"2024-239M","EPOCH":"2026-03-09T14:02:03.161184","MEAN_MOTION":15.30145167,"ECCENTRICITY":0.000118,"INCLINATION":53.1585,"RA_OF_ASC_NODE":194.7038,"ARG_OF_PERICENTER":95.0575,"MEAN_ANOMALY":265.056,"EPHEMERIS_TYPE":0,"CLASSIFICATION_TYPE":"U","NORAD_CAT_ID":62312,"ELEMENT_SET_NO":999,"REV_AT_EPOCH":6936,"BSTAR":0.0012139,"MEAN_MOTION_DOT":0.00035706,"MEAN_MOTION_DDOT":0},{"OBJECT_NAME":"CZ-4C R\/B","OBJECT_ID":"2023-123B","EPOCH":"2026-03-09T21:44:40.426944","MEAN_MOTION":15.36684191,"ECCENTRICITY":0.00627803,"INCLINATION":97.9677,"RA_OF_ASC_NODE":50.672,"ARG_OF_PERICENTER":67.0775,"MEAN_ANOMALY":293.7077,"EPHEMERIS_TYPE":0,"CLASSIFICATION_TYPE":"U","NORAD_CAT_ID":57655,"ELEMENT_SET_NO":999,"REV_AT_EPOCH":14181,"BSTAR":0.00052203987,"MEAN_MOTION_DOT":0.00019917,"MEAN_MOTION_DDOT":0}]
